CCSDS_OMM_VERS = 2.0
CREATION_DATE  = 
ORIGINATOR     = 

OBJECT_NAME    = STARLINK-34844
OBJECT_ID      = 2025-263B
CENTER_NAME    = EARTH
REF_FRAME      = TEME
TIME_SYSTEM    = UTC
MEAN_ELEMENT_THEORY = SGP/SGP4

EPOCH          = 2025-11-27T22:00:03.000096
MEAN_MOTION    = 15.85280395
ECCENTRICITY   = .00016315
INCLINATION    = 42.9971
RA_OF_ASC_NODE = 213.6557
ARG_OF_PERICENTER = 269.8812
MEAN_ANOMALY   = 321.3142

EPHEMERIS_TYPE = 0
CLASSIFICATION_TYPE = U
NORAD_CAT_ID   = 66486
ELEMENT_SET_NO = 999
REV_AT_EPOCH   = 320
BSTAR          = -.60925409E-2
MEAN_MOTION_DOT = -.1318804E-1
MEAN_MOTION_DDOT = 0

CCSDS_OMM_VERS = 2.0
CREATION_DATE  = 
ORIGINATOR     = 

OBJECT_NAME    = STARLINK-34733
OBJECT_ID      = 2025-263C
CENTER_NAME    = EARTH
REF_FRAME      = TEME
TIME_SYSTEM    = UTC
MEAN_ELEMENT_THEORY = SGP/SGP4

EPOCH          = 2025-11-27T22:00:03.000096
MEAN_MOTION    = 15.85243616
ECCENTRICITY   = .00016242
INCLINATION    = 42.9975
RA_OF_ASC_NODE = 213.6480
ARG_OF_PERICENTER = 267.1983
MEAN_ANOMALY   = 327.1523

EPHEMERIS_TYPE = 0
CLASSIFICATION_TYPE = U
NORAD_CAT_ID   = 66487
ELEMENT_SET_NO = 999
REV_AT_EPOCH   = 325
BSTAR          = -.61583864E-2
MEAN_MOTION_DOT = -.1329195E-1
MEAN_MOTION_DDOT = 0

CCSDS_OMM_VERS = 2.0
CREATION_DATE  = 
ORIGINATOR     = 

OBJECT_NAME    = STARLINK-35515
OBJECT_ID      = 2025-263D
CENTER_NAME    = EARTH
REF_FRAME      = TEME
TIME_SYSTEM    = UTC
MEAN_ELEMENT_THEORY = SGP/SGP4

EPOCH          = 2025-11-27T22:00:03.000096
MEAN_MOTION    = 15.85238801
ECCENTRICITY   = .00016051
INCLINATION    = 42.9974
RA_OF_ASC_NODE = 213.6418
ARG_OF_PERICENTER = 274.2461
MEAN_ANOMALY   = 322.5495

EPHEMERIS_TYPE = 0
CLASSIFICATION_TYPE = U
NORAD_CAT_ID   = 66488
ELEMENT_SET_NO = 999
REV_AT_EPOCH   = 325
BSTAR          = -.61959719E-2
MEAN_MOTION_DOT = -.1336014E-1
MEAN_MOTION_DDOT = 0

CCSDS_OMM_VERS = 2.0
CREATION_DATE  = 
ORIGINATOR     = 

OBJECT_NAME    = STARLINK-35696
OBJECT_ID      = 2025-263E
CENTER_NAME    = EARTH
REF_FRAME      = TEME
TIME_SYSTEM    = UTC
MEAN_ELEMENT_THEORY = SGP/SGP4

EPOCH          = 2025-11-27T22:00:03.000096
MEAN_MOTION    = 15.85222696
ECCENTRICITY   = .0001609
INCLINATION    = 42.9974
RA_OF_ASC_NODE = 213.6350
ARG_OF_PERICENTER = 264.5951
MEAN_ANOMALY   = 334.8654

EPHEMERIS_TYPE = 0
CLASSIFICATION_TYPE = U
NORAD_CAT_ID   = 66489
ELEMENT_SET_NO = 999
REV_AT_EPOCH   = 325
BSTAR          = -.62435007E-2
MEAN_MOTION_DOT = -.1344059E-1
MEAN_MOTION_DDOT = 0

CCSDS_OMM_VERS = 2.0
CREATION_DATE  = 
ORIGINATOR     = 

OBJECT_NAME    = STARLINK-35693
OBJECT_ID      = 2025-263F
CENTER_NAME    = EARTH
REF_FRAME      = TEME
TIME_SYSTEM    = UTC
MEAN_ELEMENT_THEORY = SGP/SGP4

EPOCH          = 2025-11-27T22:00:03.000096
MEAN_MOTION    = 15.85184524
ECCENTRICITY   = .00016003
INCLINATION    = 42.9974
RA_OF_ASC_NODE = 213.6270
ARG_OF_PERICENTER = 267.2637
MEAN_ANOMALY   = 335.2832

EPHEMERIS_TYPE = 0
CLASSIFICATION_TYPE = U
NORAD_CAT_ID   = 66490
ELEMENT_SET_NO = 999
REV_AT_EPOCH   = 325
BSTAR          = -.62756375E-2
MEAN_MOTION_DOT = -.1347897E-1
MEAN_MOTION_DDOT = 0

CCSDS_OMM_VERS = 2.0
CREATION_DATE  = 
ORIGINATOR     = 

OBJECT_NAME    = STARLINK-35663
OBJECT_ID      = 2025-263G
CENTER_NAME    = EARTH
REF_FRAME      = TEME
TIME_SYSTEM    = UTC
MEAN_ELEMENT_THEORY = SGP/SGP4

EPOCH          = 2025-11-27T22:00:03.000096
MEAN_MOTION    = 15.85182769
ECCENTRICITY   = .00016192
INCLINATION    = 42.9975
RA_OF_ASC_NODE = 213.6152
ARG_OF_PERICENTER = 264.9869
MEAN_ANOMALY   = 342.3098

EPHEMERIS_TYPE = 0
CLASSIFICATION_TYPE = U
NORAD_CAT_ID   = 66491
ELEMENT_SET_NO = 999
REV_AT_EPOCH   = 325
BSTAR          = -.63520322E-2
MEAN_MOTION_DOT = -.1362138E-1
MEAN_MOTION_DDOT = 0

CCSDS_OMM_VERS = 2.0
CREATION_DATE  = 
ORIGINATOR     = 

OBJECT_NAME    = STARLINK-35673
OBJECT_ID      = 2025-263H
CENTER_NAME    = EARTH
REF_FRAME      = TEME
TIME_SYSTEM    = UTC
MEAN_ELEMENT_THEORY = SGP/SGP4

EPOCH          = 2025-11-27T22:00:03.000096
MEAN_MOTION    = 15.85176376
ECCENTRICITY   = .00016599
INCLINATION    = 42.9975
RA_OF_ASC_NODE = 213.6089
ARG_OF_PERICENTER = 268.4836
MEAN_ANOMALY   = 341.2871

EPHEMERIS_TYPE = 0
CLASSIFICATION_TYPE = U
NORAD_CAT_ID   = 66492
ELEMENT_SET_NO = 999
REV_AT_EPOCH   = 325
BSTAR          = -.63986102E-2
MEAN_MOTION_DOT = -.1370507E-1
MEAN_MOTION_DDOT = 0

CCSDS_OMM_VERS = 2.0
CREATION_DATE  = 
ORIGINATOR     = 

OBJECT_NAME    = STARLINK-35597
OBJECT_ID      = 2025-263J
CENTER_NAME    = EARTH
REF_FRAME      = TEME
TIME_SYSTEM    = UTC
MEAN_ELEMENT_THEORY = SGP/SGP4

EPOCH          = 2025-11-27T22:00:03.000096
MEAN_MOTION    = 15.85153154
ECCENTRICITY   = .00017014
INCLINATION    = 42.9975
RA_OF_ASC_NODE = 213.6015
ARG_OF_PERICENTER = 265.9640
MEAN_ANOMALY   = 346.6826

EPHEMERIS_TYPE = 0
CLASSIFICATION_TYPE = U
NORAD_CAT_ID   = 66493
ELEMENT_SET_NO = 999
REV_AT_EPOCH   = 325
BSTAR          = -.64685049E-2
MEAN_MOTION_DOT = -.1382206E-1
MEAN_MOTION_DDOT = 0

CCSDS_OMM_VERS = 2.0
CREATION_DATE  = 
ORIGINATOR     = 

OBJECT_NAME    = STARLINK-35689
OBJECT_ID      = 2025-263K
CENTER_NAME    = EARTH
REF_FRAME      = TEME
TIME_SYSTEM    = UTC
MEAN_ELEMENT_THEORY = SGP/SGP4

EPOCH          = 2025-11-27T22:00:03.000096
MEAN_MOTION    = 15.85189439
ECCENTRICITY   = .00016865
INCLINATION    = 42.9975
RA_OF_ASC_NODE = 213.6211
ARG_OF_PERICENTER = 265.1476
MEAN_ANOMALY   = 339.7627

EPHEMERIS_TYPE = 0
CLASSIFICATION_TYPE = U
NORAD_CAT_ID   = 66494
ELEMENT_SET_NO = 999
REV_AT_EPOCH   = 325
BSTAR          = -.63637889E-2
MEAN_MOTION_DOT = -.1364779E-1
MEAN_MOTION_DDOT = 0

CCSDS_OMM_VERS = 2.0
CREATION_DATE  = 
ORIGINATOR     = 

OBJECT_NAME    = STARLINK-35832
OBJECT_ID      = 2025-263L
CENTER_NAME    = EARTH
REF_FRAME      = TEME
TIME_SYSTEM    = UTC
MEAN_ELEMENT_THEORY = SGP/SGP4

EPOCH          = 2025-11-27T22:00:03.000096
MEAN_MOTION    = 15.85115389
ECCENTRICITY   = .00016812
INCLINATION    = 42.9974
RA_OF_ASC_NODE = 213.5932
ARG_OF_PERICENTER = 265.0896
MEAN_ANOMALY   = 350.7777

EPHEMERIS_TYPE = 0
CLASSIFICATION_TYPE = U
NORAD_CAT_ID   = 66495
ELEMENT_SET_NO = 999
REV_AT_EPOCH   = 325
BSTAR          = -.65218083E-2
MEAN_MOTION_DOT = -.138986E-1
MEAN_MOTION_DDOT = 0

CCSDS_OMM_VERS = 2.0
CREATION_DATE  = 
ORIGINATOR     = 

OBJECT_NAME    = STARLINK-35909
OBJECT_ID      = 2025-263M
CENTER_NAME    = EARTH
REF_FRAME      = TEME
TIME_SYSTEM    = UTC
MEAN_ELEMENT_THEORY = SGP/SGP4

EPOCH          = 2025-11-27T22:00:03.000096
MEAN_MOTION    = 15.85091163
ECCENTRICITY   = .00016894
INCLINATION    = 42.9977
RA_OF_ASC_NODE = 213.5860
ARG_OF_PERICENTER = 262.5561
MEAN_ANOMALY   = 356.2733

EPHEMERIS_TYPE = 0
CLASSIFICATION_TYPE = U
NORAD_CAT_ID   = 66496
ELEMENT_SET_NO = 999
REV_AT_EPOCH   = 325
BSTAR          = -.6641314E-2
MEAN_MOTION_DOT = -.1410507E-1
MEAN_MOTION_DDOT = 0

CCSDS_OMM_VERS = 2.0
CREATION_DATE  = 
ORIGINATOR     = 

OBJECT_NAME    = STARLINK-35899
OBJECT_ID      = 2025-263N
CENTER_NAME    = EARTH
REF_FRAME      = TEME
TIME_SYSTEM    = UTC
MEAN_ELEMENT_THEORY = SGP/SGP4

EPOCH          = 2025-11-27T22:00:03.000096
MEAN_MOTION    = 15.85089064
ECCENTRICITY   = .00016639
INCLINATION    = 42.9975
RA_OF_ASC_NODE = 213.5790
ARG_OF_PERICENTER = 269.4000
MEAN_ANOMALY   = 352.0822

EPHEMERIS_TYPE = 0
CLASSIFICATION_TYPE = U
NORAD_CAT_ID   = 66497
ELEMENT_SET_NO = 999
REV_AT_EPOCH   = 325
BSTAR          = -.68249137E-2
MEAN_MOTION_DOT = -.1473723E-1
MEAN_MOTION_DDOT = 0

