STARLINK-34844          
1 66486U 25263B   25331.91670139 -.01318804  00000+0 -60925-2 0  9998
2 66486  42.9971 213.6557 0001631 269.8812 321.3142 15.85280395  3207
STARLINK-34733          
1 66487U 25263C   25331.91670139 -.01329195  00000+0 -61584-2 0  9996
2 66487  42.9975 213.6480 0001624 267.1983 327.1523 15.85243616  3256
STARLINK-35515          
1 66488U 25263D   25331.91670139 -.01336014  00000+0 -61960-2 0  9993
2 66488  42.9974 213.6418 0001605 274.2461 322.5495 15.85238801  3253
STARLINK-35696          
1 66489U 25263E   25331.91670139 -.01344059  00000+0 -62435-2 0  9990
2 66489  42.9974 213.6350 0001609 264.5951 334.8654 15.85222696  3257
STARLINK-35693          
1 66490U 25263F   25331.91670139 -.01347897  00000+0 -62756-2 0  9991
2 66490  42.9974 213.6270 0001600 267.2637 335.2832 15.85184524  3252
STARLINK-35663          
1 66491U 25263G   25331.91670139 -.01362138  00000+0 -63520-2 0  9997
2 66491  42.9975 213.6152 0001619 264.9869 342.3098 15.85182769  3256
STARLINK-35673          
1 66492U 25263H   25331.91670139 -.01370507  00000+0 -63986-2 0  9993
2 66492  42.9975 213.6089 0001659 268.4836 341.2871 15.85176376  3257
STARLINK-35597          
1 66493U 25263J   25331.91670139 -.01382206  00000+0 -64685-2 0  9990
2 66493  42.9975 213.6015 0001701 265.9640 346.6826 15.85153154  3258
STARLINK-35689          
1 66494U 25263K   25331.91670139 -.01364779  00000+0 -63638-2 0  9993
2 66494  42.9975 213.6211 0001686 265.1476 339.7627 15.85189439  3255
STARLINK-35832          
1 66495U 25263L   25331.91670139 -.01389860  00000+0 -65218-2 0  9998
2 66495  42.9974 213.5932 0001681 265.0896 350.7777 15.85115389  3256
STARLINK-35909          
1 66496U 25263M   25331.91670139 -.01410507  00000+0 -66413-2 0  9990
2 66496  42.9977 213.5860 0001689 262.5561 356.2733 15.85091163  3255
STARLINK-35899          
1 66497U 25263N   25331.91670139 -.01473723  00000+0 -68249-2 0  9999
2 66497  42.9975 213.5790 0001663 269.4000 352.0822 15.85089064  3252
